TRANSPORTER-13 OBJECT BC
1 63260U 25052BC  26068.66043788  .00002678  00000+0  25427-3 0  9990
2 63260  97.6967 322.0668 0001150  20.7823 339.3444 14.94345554 53764
2025-274C               
1 66652U 25274C   26068.38600403  .00003392  00000+0  33513-3 0  9995
2 66652  97.7436 359.0846 0011330 338.0419  22.0314 14.92548925 15326
