[{"OBJECT_NAME":"TRANSPORTER-13 OBJECT BC","OBJECT_ID":"2025-052BC","EPOCH":"2026-03-09T15:51:01.832832","MEAN_MOTION":14.94345554,"ECCENTRICITY":0.00011495,"INCLINATION":97.6967,"RA_OF_ASC_NODE":322.0668,"ARG_OF_PERICENTER":20.7823,"MEAN_ANOMALY":339.3444,"EPHEMERIS_TYPE":0,"CLASSIFICATION_TYPE":"U","NORAD_CAT_ID":63260,"ELEMENT_SET_NO":999,"REV_AT_EPOCH":5376,"BSTAR":0.00025427428,"MEAN_MOTION_DOT":2.678e-5,"MEAN_MOTION_DDOT":0},{"OBJECT_NAME":"OBJECT C","OBJECT_ID":"2025-274C","EPOCH":"2026-03-09T09:15:50.748192","MEAN_MOTION":14.92548925,"ECCENTRICITY":0.00113303,"INCLINATION":97.7436,"RA_OF_ASC_NODE":359.0846,"ARG_OF_PERICENTER":338.0419,"MEAN_ANOMALY":22.0314,"EPHEMERIS_TYPE":0,"CLASSIFICATION_TYPE":"U","NORAD_CAT_ID":66652,"ELEMENT_SET_NO":999,"REV_AT_EPOCH":1532,"BSTAR":0.00033513177,"MEAN_MOTION_DOT":3.392e-5,"MEAN_MOTION_DDOT":0}]
